OBJECT_NAME,OBJECT_ID,EPOCH,MEAN_MOTION,ECCENTRICITY,INCLINATION,RA_OF_ASC_NODE,ARG_OF_PERICENTER,MEAN_ANOMALY,EPHEMERIS_TYPE,CLASSIFICATION_TYPE,NORAD_CAT_ID,ELEMENT_SET_NO,REV_AT_EPOCH,BSTAR,MEAN_MOTION_DOT,MEAN_MOTION_DDOT
ION SCV-004,2022-002K,2026-05-16T14:03:53.450784,15.30112904,.00091636,97.2854,194.8422,104.8093,255.4164,0,U,50993,999,24046,.15090359E-3,.4327E-4,0
ETV-A1,2022-002CE,2026-05-16T15:16:08.338368,15.39981353,.00068853,97.2897,203.0461,100.4623,259.7400,0,U,51060,999,24098,.25330643E-3,.10026E-3,0
BRO-5,2022-002CF,2026-05-16T14:37:01.358400,15.45563758,.0006519,97.3015,210.0408,89.8304,270.3692,0,U,51061,999,24137,.36559884E-3,.1751E-3,0
LUDI TANCE 1-01A (L-SAR 01A),2022-007A,2026-05-16T10:48:03.191616,14.88416198,.00015934,97.8089,144.3215,91.8356,268.3043,0,U,51284,999,23375,.45828968E-4,.371E-5,0
LUDI TANCE 1-01B (L-SAR 01B),2022-018A,2026-05-16T14:50:02.754816,14.88417583,.00016325,97.8091,144.4831,92.6255,267.5148,0,U,51822,999,22901,.45627458E-4,.369E-5,0
JILIN-1 GAOFEN 03D15,2022-019R,2026-05-16T12:44:34.264896,15.93472811,.00062184,97.3643,232.3583,228.1282,131.9463,0,U,51839,999,23507,.95056524E-3,.337571E-2,.45941596E-4
JILIN-1 GAOFEN 03D12,2022-019T,2026-05-16T13:36:12.814272,15.94783068,.00064219,97.3645,232.3438,222.9469,137.1306,0,U,51841,999,23508,.10729649E-2,.408382E-2,.682264E-4
2022-023F,2022-023F,2026-05-16T15:43:30.002304,15.17952991,.0128178,63.4483,20.6783,343.8571,15.8473,0,U,51951,999,23292,.72803695E-3,.18241E-3,0
MERIDIAN 10,2022-030A,2026-05-16T01:39:18.116352,2.00616194,.67752169,62.6772,144.2440,272.8806,17.7130,0,U,52145,999,3038,0,.257E-5,0
OMNI-L1,2022-033A,2026-05-16T11:02:40.880832,14.82621277,.00059534,97.8396,216.2564,42.1451,318.0219,0,U,52157,999,22275,.14871085E-3,.1145E-4,0
ENMAP,2022-033C,2026-05-16T13:15:41.308416,14.74959319,.00015021,97.9795,219.2510,86.0426,274.0955,0,U,52159,999,22199,.57345146E-4,.335E-5,0
ARCSAT-1,2022-033E,2026-05-16T11:49:06.083328,15.52788265,.00035475,97.2749,228.3158,326.0448,34.0578,0,U,52161,999,23078,.19138428E-3,.1175E-3,0
GLOBAL-18,2022-034B,2026-05-16T05:54:16.324992,15.44872475,.00054101,52.9824,49.1255,137.5678,222.5746,0,U,52196,999,23202,.42378611E-3,.19847E-3,0
GAOFEN-3 03,2022-035A,2026-05-16T14:14:24.298656,14.42219889,.0001014,98.4068,145.6313,77.1540,282.9763,0,U,52200,999,21629,.73043498E-4,.197E-5,0
DAQI-1,2022-039A,2026-05-16T15:18:45.360000,14.57656635,.0004036,98.1474,76.1446,14.4267,345.7047,0,U,52257,999,21734,.41720273E-4,.145E-5,0
BRO-6,2022-047AE,2026-05-16T11:50:34.509408,15.48566155,.00054014,97.3403,226.9913,172.8238,187.3091,0,U,52422,999,22624,.62317831E-3,.33231E-3,0
JILIN-1 GAOFEN 3D27,2022-048B,2026-05-16T13:52:00.917760,15.68725963,.00054274,97.5686,247.8353,159.0260,201.1225,0,U,52444,999,22451,.70847453E-3,.81258E-3,0
VIGORIDE-3,2022-057AE,2026-05-16T15:11:58.935264,15.26923360,.00074295,97.6561,275.7888,228.2682,131.7922,0,U,52760,999,22034,.15879222E-3,.4122E-4,0
ION SCV-006,2022-057AF,2026-05-16T08:40:51.492576,15.44491473,.00167445,97.6060,283.4857,225.7389,134.2486,0,U,52761,999,22120,.18243794E-3,.8401E-4,0
SHERPA-AC1,2022-057AH,2026-05-16T14:26:28.745376,15.35788406,.00073944,97.6644,284.5313,194.8055,165.2972,0,U,52763,999,22085,.18332609E-3,.63E-4,0
OMNI-L2,2022-057AR,2026-05-16T13:51:14.976288,14.81278805,.00082263,97.4730,201.0591,74.2936,285.9185,0,U,52771,999,21571,.11759566E-3,.87E-5,0
STEP CUBE LAB-II,2022-065D,2026-05-16T14:42:02.075328,14.63248456,.00097208,98.2176,280.6200,119.5550,240.6622,0,U,52897,999,20688,.10639473E-3,.501E-5,0
RANDEV,2022-065E,2026-05-16T14:55:34.231872,14.63633483,.00090261,98.2161,280.9668,119.5546,240.6557,0,U,52898,999,20663,.10589768E-3,.502E-5,0
SNUGLITE-II,2022-065F,2026-05-16T09:26:23.543520,14.64283145,.00086648,98.2159,281.2890,119.9133,240.2931,0,U,52899,999,20634,.12098939E-3,.59E-5,0
MIMAN,2022-065G,2026-05-16T15:07:57.361728,14.61805700,.00087755,98.2217,279.2801,120.7161,239.4906,0,U,52900,999,20583,.7558432E-4,.33E-5,0
STARLINK-4362,2022-077A,2026-05-16T10:22:11.103744,15.05653195,.00011803,97.4879,316.6084,114.0692,246.0659,0,U,53043,999,21110,-.31573154E-4,-.515E-5,0
