ION SCV-004             
1 50993U 22002K   26136.58603531  .00004327  00000+0  15090-3 0  9994
2 50993  97.2854 194.8422 0009163 104.8093 255.4164 15.30112904240466
ETV-A1                  
1 51060U 22002CE  26136.63620762  .00010026  00000+0  25331-3 0  9993
2 51060  97.2897 203.0461 0006885 100.4623 259.7400 15.39981353240982
BRO-5                   
1 51061U 22002CF  26136.60904350  .00017510  00000+0  36560-3 0  9990
2 51061  97.3015 210.0408 0006519  89.8304 270.3692 15.45563758241373
LUDI TANCE 1-01A (L-SA*)
1 51284U 22007A   26136.45003694  .00000371  00000+0  45829-4 0  9992
2 51284  97.8089 144.3215 0001593  91.8356 268.3043 14.88416198233759
LUDI TANCE 1-01B (L-SA*)
1 51822U 22018A   26136.61808744  .00000369  00000+0  45627-4 0  9992
2 51822  97.8091 144.4831 0001632  92.6255 267.5148 14.88417583229016
JILIN-1 GAOFEN 03D15    
1 51839U 22019R   26136.53095214  .00337571  45942-4  95057-3 0  9990
2 51839  97.3643 232.3583 0006218 228.1282 131.9463 15.93472811235073
JILIN-1 GAOFEN 03D12    
1 51841U 22019T   26136.56681498  .00408382  68226-4  10730-2 0  9994
2 51841  97.3645 232.3438 0006421 222.9469 137.1306 15.94783068235087
2022-023F               
1 51951U 22023F   26136.65520836  .00018241  00000+0  72804-3 0  9992
2 51951  63.4483  20.6783 0128178 343.8571  15.8473 15.17952991232920
MERIDIAN 10             
1 52145U 22030A   26136.06895968  .00000257  00000+0  00000+0 0  9995
2 52145  62.6772 144.2440 6775217 272.8806  17.7130  2.00616194 30388
OMNI-L1                 
1 52157U 22033A   26136.46019537  .00001145  00000+0  14871-3 0  9997
2 52157  97.8396 216.2564 0005953  42.1451 318.0219 14.82621277222751
ENMAP                   
1 52159U 22033C   26136.55256144  .00000335  00000+0  57345-4 0  9990
2 52159  97.9795 219.2510 0001502  86.0426 274.0955 14.74959319221991
ARCSAT-1                
1 52161U 22033E   26136.49243152  .00011750  00000+0  19138-3 0  9991
2 52161  97.2749 228.3158 0003547 326.0448  34.0578 15.52788265230786
GLOBAL-18               
1 52196U 22034B   26136.24602228  .00019847  00000+0  42379-3 0  9994
2 52196  52.9824  49.1255 0005410 137.5678 222.5746 15.44872475232022
GAOFEN-3 03             
1 52200U 22035A   26136.59333679  .00000197  00000+0  73043-4 0  9991
2 52200  98.4068 145.6313 0001014  77.1540 282.9763 14.42219889216294
DAQI-1                  
1 52257U 22039A   26136.63802500  .00000145  00000+0  41720-4 0  9996
2 52257  98.1474  76.1446 0004036  14.4267 345.7047 14.57656635217346
BRO-6                   
1 52422U 22047AE  26136.49345497  .00033231  00000+0  62318-3 0  9997
2 52422  97.3403 226.9913 0005401 172.8238 187.3091 15.48566154226246
JILIN-1 GAOFEN 3D27     
1 52444U 22048B   26136.57778840  .00081258  00000+0  70847-3 0  9991
2 52444  97.5686 247.8353 0005427 159.0260 201.1225 15.68725963224514
VIGORIDE-3              
1 52760U 22057AE  26136.63332101  .00004122  00000+0  15879-3 0  9994
2 52760  97.6561 275.7888 0007429 228.2682 131.7922 15.26923360220346
ION SCV-006             
1 52761U 22057AF  26136.36170709  .00008401  00000+0  18244-3 0  9992
2 52761  97.6060 283.4857 0016744 225.7389 134.2486 15.44491473221203
SHERPA-AC1              
1 52763U 22057AH  26136.60172159  .00006300  00000+0  18333-3 0  9997
2 52763  97.6644 284.5313 0007394 194.8055 165.2972 15.35788406220858
OMNI-L2                 
1 52771U 22057AR  26136.57725667  .00000870  00000+0  11760-3 0  9993
2 52771  97.4730 201.0591 0008226  74.2936 285.9185 14.81278805215719
STEP CUBE LAB-II        
1 52897U 22065D   26136.61252402  .00000501  00000+0  10639-3 0  9993
2 52897  98.2176 280.6200 0009720 119.5550 240.6622 14.63248456206887
RANDEV                  
1 52898U 22065E   26136.62192398  .00000502  00000+0  10590-3 0  9999
2 52898  98.2161 280.9668 0009026 119.5546 240.6557 14.63633483206635
SNUGLITE-II             
1 52899U 22065F   26136.39332805  .00000590  00000+0  12099-3 0  9996
2 52899  98.2159 281.2890 0008664 119.9133 240.2931 14.64283145206344
MIMAN                   
1 52900U 22065G   26136.63052502  .00000330  00000+0  75584-4 0  9990
2 52900  98.2217 279.2801 0008775 120.7161 239.4906 14.61805700205834
STARLINK-4362           
1 53043U 22077A   26136.43207296 -.00000515  00000+0 -31573-4 0  9999
2 53043  97.4879 316.6084 0001180 114.0692 246.0659 15.05653195211109
